FENGYUN 1C DEB          
1 31623U 99025CAD 17345.77211093  .00000098  00000-0  10712-3 0  9991
2 31623  97.6271 346.8164 0198214 212.5255 146.3564 13.80284212535337
